NORAD_CAT_ID,OBJECT_NAME,OBJECT_TYPE,EPOCH,MEAN_MOTION,ECCENTRICITY,INCLINATION,RA_OF_ASC_NODE,ARG_OF_PERICENTER,MEAN_ANOMALY,BSTAR,MEAN_MOTION_DOT,MEAN_MOTION_DDOT,TLE_LINE0,TLE_LINE1,TLE_LINE2,SEMIMAJOR_AXIS,PERIOD,APOGEE,PERIGEE,DECAYED
52858.0,STARLINK-4198,PAYLOAD,2023-12-31 10:32:48,15.08842166,0.0001544,53.2169,12.1247,101.1168,258.9998,0.00011431,1.532e-05,0.0,0 STARLINK-4198,1 52858U 22062AE  23365.43944749  .00001532  00000-0  11431-3 0  9997,2 52858  53.2169  12.1247 0001544 101.1168 258.9998 15.08842166 85267,6917.874,95.437,540.807,538.671,0.0
52858.0,STARLINK-4198,PAYLOAD,2024-01-01 04:02:02,15.08839989,0.0001575,53.2174,8.8513,91.7694,268.3479,9.0519e-06,-1.44e-06,0.0,0 STARLINK-4198,1 52858U 22062AE  24001.16808949 -.00000144  00000-0  90519-5 0  9991,2 52858  53.2174   8.8513 0001575  91.7694 268.3479 15.08839989 85867,6917.88,95.438,540.835,538.656,0.0
52858.0,STARLINK-4198,PAYLOAD,2024-01-01 10:23:35,15.0884114,0.0001726,53.2174,7.6636,109.1949,250.923,6.3949e-05,7.3e-06,0.0,0 STARLINK-4198,1 52858U 22062AE  24001.43304842  .00000730  00000-0  63949-4 0  9990,2 52858  53.2174   7.6636 0001726 109.1949 250.9230 15.08841140 85410,6917.877,95.437,540.936,538.548,0.0
52858.0,STARLINK-4198,PAYLOAD,2024-01-02 07:03:36,15.08840933,0.0001781,53.2177,3.7974,101.9175,258.2017,0.00015555,2.188e-05,0.0,0 STARLINK-4198,1 52858U 22062AE  24002.29417068  .00002188  00000-0  15555-3 0  9998,2 52858  53.2177   3.7974 0001781 101.9175 258.2017 15.08840933 86039,6917.878,95.437,540.975,538.51,0.0
52858.0,STARLINK-4198,PAYLOAD,2024-01-03 06:54:23,15.08838226,0.0001732,53.2177,359.337,96.4974,263.6215,4.7595e-05,4.69e-06,0.0,0 STARLINK-4198,1 52858U 22062AE  24003.28777288  .00000469  00000-0  47595-4 0  9991,2 52858  53.2177 359.3370 0001732  96.4974 263.6215 15.08838226 86188,6917.886,95.438,540.949,538.553,0.0
52858.0,STARLINK-4198,PAYLOAD,2024-01-04 05:09:47,15.08841846,0.000167,53.2182,355.1751,98.1864,261.9318,8.0285e-05,9.9e-06,0.0,0 STARLINK-4198,1 52858U 22062AE  24004.21513413  .00000990  00000-0  80285-4 0  9995,2 52858  53.2182 355.1751 0001670  98.1864 261.9318 15.08841846 85837,6917.875,95.437,540.895,538.584,0.0
52858.0,STARLINK-4198,PAYLOAD,2024-01-04 22:39:02,15.0884167,0.0001653,53.2182,351.9072,94.2335,265.8846,9.7936e-05,1.271e-05,0.0,0 STARLINK-4198,1 52858U 22062AE  24004.94377386  .00001271  00000-0  97936-4 0  9996,2 52858  53.2182 351.9072 0001653  94.2335 265.8846 15.08841670 85944,6917.875,95.437,540.884,538.597,0.0
52858.0,STARLINK-4198,PAYLOAD,2024-01-05 05:00:33,15.08863133,0.0001639,53.2183,350.7156,92.4875,267.6305,0.00027944,4.165e-05,0.0,0 STARLINK-4198,1 52858U 22062AE  24005.20871608  .00004165  00000-0  27944-3 0  9998,2 52858  53.2183 350.7156 0001639  92.4875 267.6305 15.08863133 86475,6917.81,95.436,540.809,538.541,0.0
52858.0,STARLINK-4198,PAYLOAD,2024-01-05 08:11:19,15.08867253,0.0001602,53.2176,350.1198,93.3354,266.7822,0.00044702,6.839e-05,0.0,0 STARLINK-4198,1 52858U 22062AE  24005.34119855  .00006839  00000-0  44702-3 0  9993,2 52858  53.2176 350.1198 0001602  93.3354 266.7822 15.08867253 86009,6917.797,95.436,540.77,538.554,0.0
52858.0,STARLINK-4198,PAYLOAD,2024-01-05 22:29:48,15.08844071,0.0002102,53.2176,347.4518,76.5769,283.5458,1.8942e-05,1.3e-07,0.0,0 STARLINK-4198,1 52858U 22062AE  24005.93736986  .00000013  00000-0  18942-4 0  9994,2 52858  53.2176 347.4518 0002102  76.5769 283.5458 15.08844071 86097,6917.868,95.437,541.187,538.279,0.0
52858.0,STARLINK-4198,PAYLOAD,2024-01-06 04:51:21,15.08839154,0.0001793,53.2179,346.2591,87.2061,272.9136,-3.1886e-05,-7.96e-06,0.0,0 STARLINK-4198,1 52858U 22062AE  24006.20233218 -.00000796  00000-0 -31886-4 0  9997,2 52858  53.2179 346.2591 0001793  87.2061 272.9136 15.08839154 86627,6917.883,95.438,540.988,538.508,0.0
52858.0,STARLINK-4198,PAYLOAD,2024-01-06 08:02:07,15.08841276,0.0001765,53.2178,345.6628,93.5726,266.5468,3.9281e-06,-2.26e-06,0.0,0 STARLINK-4198,1 52858U 22062AE  24006.33481073 -.00000226  00000-0  39281-5 0  9990,2 52858  53.2178 345.6628 0001765  93.5726 266.5468 15.08841276 86150,6917.876,95.437,540.962,538.52,0.0
52858.0,STARLINK-4198,PAYLOAD,2024-01-07 04:42:08,15.08849435,0.0001751,53.2191,341.7944,99.609,260.51,-0.0001238,-2.258e-05,0.0,0 STARLINK-4198,1 52858U 22062AE  24007.19593247 -.00002258  00000-0 -12380-3 0  9999,2 52858  53.2191 341.7944 0001751  99.6090 260.5100 15.08849435 86285,6917.852,95.437,540.928,538.505,0.0
52858.0,STARLINK-4198,PAYLOAD,2024-01-07 22:11:23,15.08835299,0.000209,53.2197,338.5241,118.281,241.8393,0.00012839,1.755e-05,0.0,0 STARLINK-4198,1 52858U 22062AE  24007.92457504  .00001755  00000-0  12839-3 0  9993,2 52858  53.2197 338.5241 0002090 118.2810 241.8393 15.08835299 86391,6917.895,95.438,541.206,538.314,0.0
52858.0,STARLINK-4198,PAYLOAD,2024-01-08 02:57:32,15.08838482,0.0002047,53.2195,337.6325,115.9861,244.1342,0.00015317,2.15e-05,0.0,0 STARLINK-4198,1 52858U 22062AE  24008.12329373  .00002150  00000-0  15317-3 0  9992,2 52858  53.2195 337.6325 0002047 115.9861 244.1342 15.08838482 86919,6917.885,95.438,541.166,538.334,0.0
52858.0,STARLINK-4198,PAYLOAD,2024-01-08 07:43:42,15.08834323,0.000183,53.2181,336.738,107.6071,252.5121,0.00046617,7.138e-05,0.0,0 STARLINK-4198,1 52858U 22062AE  24008.32202020  .00007138  00000-0  46617-3 0  9991,2 52858  53.2181 336.7380 0001830 107.6071 252.5121 15.08834323 86452,6917.898,95.438,541.029,538.497,0.0
52858.0,STARLINK-4198,PAYLOAD,2024-01-09 04:23:43,15.08839796,0.0001778,53.2175,332.8716,99.9181,260.2012,0.00011295,1.51e-05,0.0,0 STARLINK-4198,1 52858U 22062AE  24009.18313841  .00001510  00000-0  11295-3 0  9992,2 52858  53.2175 332.8716 0001778  99.9181 260.2012 15.08839796 87074,6917.881,95.438,540.976,538.516,0.0
52858.0,STARLINK-4198,PAYLOAD,2024-01-09 07:34:29,15.08841075,0.0001769,53.2174,332.2765,99.901,260.2182,0.00012112,1.64e-05,0.0,0 STARLINK-4198,1 52858U 22062AE  24009.31561770  .00001640  00000-0  12112-3 0  9996,2 52858  53.2174 332.2765 0001769  99.9010 260.2182 15.08841075 86601,6917.877,95.437,540.966,538.518,0.0
52858.0,STARLINK-4198,PAYLOAD,2024-01-09 21:52:57,15.08841552,0.0001768,53.2174,329.5996,103.3973,256.7216,3.4754e-05,2.65e-06,0.0,0 STARLINK-4198,1 52858U 22062AE  24009.91177718  .00000265  00000-0  34754-4 0  9996,2 52858  53.2174 329.5996 0001768 103.3973 256.7216 15.08841552 86690,6917.876,95.437,540.964,538.518,0.0
52858.0,STARLINK-4198,PAYLOAD,2024-01-10 02:39:06,15.08849023,0.0001865,53.2191,328.7073,110.8926,249.2266,9.1033e-05,1.161e-05,0.0,0 STARLINK-4198,1 52858U 22062AE  24010.11049269  .00001161  00000-0  91033-4 0  9998,2 52858  53.2191 328.7073 0001865 110.8926 249.2266 15.08849023 86722,6917.853,95.437,541.008,538.428,0.0
52858.0,STARLINK-4198,PAYLOAD,2024-01-11 02:29:54,15.08839591,0.0001743,53.2196,324.2555,101.6371,258.4817,5.1619e-05,5.34e-06,0.0,0 STARLINK-4198,1 52858U 22062AE  24011.10410188  .00000534  00000-0  51619-4 0  9999,2 52858  53.2196 324.2555 0001743 101.6371 258.4817 15.08839591 87364,6917.882,95.438,540.952,538.541,0.0
52858.0,STARLINK-4198,PAYLOAD,2024-01-11 05:40:40,15.08843429,0.0001786,53.2199,323.6604,103.3188,256.8004,8.7754e-05,1.109e-05,0.0,0 STARLINK-4198,1 52858U 22062AE  24011.23657820  .00001109  00000-0  87754-4 0  9997,2 52858  53.2199 323.6604 0001786 103.3188 256.8004 15.08843429 86899,6917.87,95.437,540.97,538.499,0.0
52858.0,STARLINK-4198,PAYLOAD,2024-01-12 03:56:04,15.08844221,0.0001731,53.219,319.4954,78.2635,281.8552,4.6645e-05,4.54e-06,0.0,0 STARLINK-4198,1 52858U 22062AE  24012.16394008  .00000454  00000-0  46645-4 0  9992,2 52858  53.2190 319.4954 0001731  78.2635 281.8552 15.08844221 87526,6917.867,95.437,540.93,538.535,0.0
52858.0,STARLINK-4198,PAYLOAD,2024-01-12 19:49:56,15.08836257,0.0001458,53.2186,316.5206,95.9845,264.1313,6.111e-06,-1.91e-06,0.0,0 STARLINK-4198,1 52858U 22062AE  24012.82634765 -.00000191  00000-0  61110-5 0  9996,2 52858  53.2186 316.5206 0001458  95.9845 264.1313 15.08836257 87624,6917.892,95.438,540.765,538.748,0.0
52858.0,STARLINK-4198,PAYLOAD,2024-01-13 03:46:52,15.08839421,0.0001707,53.2188,315.0338,79.6626,280.4558,4.2442e-05,3.87e-06,0.0,0 STARLINK-4198,1 52858U 22062AE  24013.15754703  .00000387  00000-0  42442-4 0  9990,2 52858  53.2188 315.0338 0001707  79.6626 280.4558 15.08839421 87188,6917.882,95.438,540.928,538.566,0.0
52858.0,STARLINK-4198,PAYLOAD,2024-01-14 02:02:15,15.08848684,0.0001592,53.2184,310.8691,85.3,274.8174,5.2008e-05,5.4e-06,0.0,0 STARLINK-4198,1 52858U 22062AE  24014.08490290  .00000540  00000-0  52008-4 0  9991,2 52858  53.2184 310.8691 0001592  85.3000 274.8174 15.08848684 87813,6917.854,95.437,540.82,538.618,0.0
52858.0,STARLINK-4198,PAYLOAD,2024-01-14 05:13:01,15.0885473,0.0001643,53.2198,310.2656,108.0387,252.0784,7.4854e-05,9.04e-06,0.0,0 STARLINK-4198,1 52858U 22062AE  24014.21737587  .00000904  00000-0  74854-4 0  9996,2 52858  53.2198 310.2656 0001643 108.0387 252.0784 15.08854730 87837,6917.835,95.437,540.837,538.564,0.0
52858.0,STARLINK-4198,PAYLOAD,2024-01-14 19:31:29,15.08846847,0.0002246,53.2198,307.5899,138.9432,221.173,2.9862e-05,1.87e-06,0.0,0 STARLINK-4198,1 52858U 22062AE  24014.81354076  .00000187  00000-0  29862-4 0  9992,2 52858  53.2198 307.5899 0002246 138.9432 221.1730 15.08846847 87926,6917.859,95.437,541.278,538.171,0.0
52858.0,STARLINK-4198,PAYLOAD,2024-01-14 22:42:15,15.08850583,0.0002271,53.2173,307.0033,124.4456,235.6751,0.00019843,2.872e-05,0.0,0 STARLINK-4198,1 52858U 22062AE  24014.94601700  .00002872  00000-0  19843-3 0  9995,2 52858  53.2173 307.0033 0002271 124.4456 235.6751 15.08850583 87451,6917.848,95.437,541.284,538.142,0.0
52858.0,STARLINK-4198,PAYLOAD,2024-01-15 05:03:47,15.08861529,0.0001733,53.2167,305.8108,113.7373,246.3801,0.0002906,4.343e-05,0.0,0 STARLINK-4198,1 52858U 22062AE  24015.21097090  .00004343  00000-0  29060-3 0  9994,2 52858  53.2167 305.8108 0001733 113.7373 246.3801 15.08861529 87989,6917.815,95.436,540.878,538.481,0.0
